#aP2002  1  1  0  0  0.00000000     361     D ITR00 FIT  NGS
## 1147 172800.00000000   300.00000000 52275 0.0000000000000
+   27     1  2  3  4  5  6  7  8  9 10 11 13 14 15 17 18 20
+         21 22 23 25 26 27 28 29 30 31  0  0  0  0  0  0  0
+          0  0  0  0  0  0  0  0  0  0  0  0  0  0  0  0  0
+          0  0  0  0  0  0  0  0  0  0  0  0  0  0  0  0  0
+          0  0  0  0  0  0  0  0  0  0  0  0  0  0  0  0  0
++         4  4  4  4  4  4  3  3  4  4  4  4  4  4  5  4  4
++         4  4  4  4  4  3  4  4  3  4  0  0  0  0  0  0  0
++         0  0  0  0  0  0  0  0  0  0  0  0  0  0  0  0  0
++         0  0  0  0  0  0  0  0  0  0  0  0  0  0  0  0  0
++         0  0  0  0  0  0  0  0  0  0  0  0  0  0  0  0  0
%c cc cc ccc ccc cccc cccc cccc cccc ccccc ccccc ccccc ccccc
%c cc cc ccc ccc cccc cccc cccc cccc ccccc ccccc ccccc ccccc
%f  0.0000000  0.000000000  0.00000000000  0.000000000000000
%f  0.0000000  0.000000000  0.00000000000  0.000000000000000
%i    0    0    0    0      0      0      0      0         0
%i    0    0    0    0      0      0      0      0         0
/* CCCCCCCCCCCCCCCCCCCCCCCCCCCCCCCCCCCCCCCCCCCCCCCCCCCCCCCCC
/* CCCCCCCCCCCCCCCCCCCCCCCCCCCCCCCCCCCCCCCCCCCCCCCCCCCCCCCCC
/* CCCCCCCCCCCCCCCCCCCCCCCCCCCCCCCCCCCCCCCCCCCCCCCCCCCCCCCCC
/* CCCCCCCCCCCCCCCCCCCCCCCCCCCCCCCCCCCCCCCCCCCCCCCCCCCCCCCCC
*  2002  1  1  2 55  0.00000000
P  1   6379.087435  15773.890683  20551.980065 999999.999999
P  2  18490.889608  16286.089692  -9735.892318 999999.999999
P  3 -11824.888383  23607.646062  -2244.030773 999999.999999
P  4  23202.645689  -6187.379096  11701.147561 999999.999999
P  5 -12055.205433 -23670.442234  -2105.067277 999999.999999
P  6 -13113.507695  -8618.475632  21598.081329 999999.999999
P  7  18830.162917 -12892.505764 -13041.405158 999999.999999
P  8  26403.475730   -541.470320  -3945.324434 999999.999999
P  9 -10995.931332 -14567.364702 -19729.513557 999999.999999
P 10   1382.320366 -21076.823536  15953.058439 999999.999999
P 11  11506.616296  14467.392725 -19045.792202 999999.999999
P 13  14521.917649   4842.293287  21690.858924 999999.999999
P 14 -19135.116688  13074.926305 -13011.665309 999999.999999
P 15 -26474.153519  -2401.779461  -1356.564290 999999.999999
P 17 -25478.638008  -7366.398935   4590.045072 999999.999999
P 18 -17573.396931 -11879.093232 -16068.416955 999999.999999
P 20  13401.964284  22788.102496   2246.736548 999999.999999
P 21 -15442.354001   1041.048240 -21268.857428 999999.999999
P 22  -6310.592336  16931.899488  18956.331529 999999.999999
P 23 -12957.374182 -22875.828879  -3832.279886 999999.999999
P 25 -19772.876185  10745.007171  14276.403204 999999.999999
P 26   3373.787780 -22241.326524 -13754.725693 999999.999999
P 27  25202.420896   5782.449200   7628.491694 999999.999999
P 28  16815.993091   1448.877386 -20446.852944 999999.999999
P 29 -17167.449852  18867.026903  -6822.980549 999999.999999
P 30 -17373.309524 -17622.474552   9539.068773 999999.999999
P 31  -2137.978726  22672.066086 -13659.957681 999999.999999
*  2002  1  1  3  0  0.00000000
P  1   5931.136669  16394.320876  20193.419211 999999.999999
P  2  18613.123050  16659.892173  -8904.910064 999999.999999
P  3 -11955.029218  23610.203910  -1309.951085 999999.999999
P  4  23621.489600  -6101.563225  10881.773624 999999.999999
P  5 -11916.732869 -23642.002921  -3030.713000 999999.999999
P  6 -12675.495068  -9302.864107  21569.649369 999999.999999
P  7  18633.599571 -12390.181544 -13776.827140 999999.999999
P  8  26520.478090   -453.284186  -3009.767447 999999.999999
P  9 -10258.082750 -14585.305847 -20103.102484 999999.999999
P 10   1712.024601 -20546.887349  16605.385617 999999.999999
P 11  10768.185063  14529.527829 -19426.109958 999999.999999
P 13  14085.894808   5546.612599  21811.940764 999999.999999
P 14 -18914.685337  12610.073039 -13765.944518 999999.999999
P 15 -26490.628280  -2469.756708   -394.887732 999999.999999
P 17 -25285.740359  -7385.192164   5517.351628 999999.999999
P 18 -17772.825164 -12445.044890 -15410.027201 999999.999999
P 20  13360.143495  22888.526760   1295.109264 999999.999999
P 21 -15810.744314    297.514546 -21042.911028 999999.999999
P 22  -6755.312727  16313.480630  19350.513345 999999.999999
P 23 -12962.592207 -23033.605511  -2879.946765 999999.999999
P 25 -20294.160320  10676.744779  13559.200973 999999.999999
P 26   3709.424025 -22631.266623 -12986.418030 999999.999999
P 27  24911.824948   5860.569410   8490.732030 999999.999999
P 28  17150.275800   2152.723987 -20112.812218 999999.999999
P 29 -17086.714234  18578.958250  -7727.653455 999999.999999
P 30 -17464.807475 -17978.520308   8689.334409 999999.999999
P 31  -2463.651466  23058.401687 -12913.819543 999999.999999
*  2002  1  1  3  5  0.00000000
P  1   5501.883996  17010.819513  19796.711468 999999.999999
P  2  18724.179927  17004.517638  -8056.797876 999999.999999
P  3 -12068.355374  23583.852296   -373.345276 999999.999999
P  4  24010.740310  -6024.865921  10041.921183 999999.999999
P  5 -11759.534123 -23586.523889  -3950.612854 999999.999999
P  6 -12249.717074  -9993.057997  21500.534990 999999.999999
P  7  18431.694261 -11860.573672 -14485.012030 999999.999999
P  8  26603.929573   -368.846488  -2068.533632 999999.999999
P  9  -9507.241675 -14615.837177 -20439.529582 999999.999999
P 10   2062.756932 -20001.946947  17225.608228 999999.999999
P 11  10017.222333  14603.328971 -19769.158424 999999.999999
P 13  13660.678859   6261.800713  21891.223853 999999.999999
P 14 -18688.107333  12117.373646 -14493.913976 999999.999999
P 15 -26472.228658  -2534.253922    567.540279 999999.999999
P 17 -25059.211916  -7403.104886   6434.503852 999999.999999
P 18 -17971.119276 -12984.563093 -14722.307250 999999.999999
P 20  13302.777587  22958.116585    340.994649 999999.999999
P 21 -16187.797883   -430.152137 -20775.581171 999999.999999
P 22  -7216.955974  15690.147518  19706.082561 999999.999999
P 23 -12955.451055 -23158.474695  -1922.115029 999999.999999
P 25 -20789.481286  10615.576784  12816.270680 999999.999999
P 26   4022.924864 -23001.888932 -12192.660600 999999.999999
P 27  24591.097405   5944.143989   9337.433650 999999.999999
P 28  17490.192936   2838.709547 -19740.091138 999999.999999
P 29 -16994.118837  18259.753973  -8617.254977 999999.999999
P 30 -17546.031725 -18304.841776   7822.901486 999999.999999
P 31  -2769.295289  23425.350062 -12142.907941 999999.999999
*  2002  1  1  3 10  0.00000000
P  1   5091.721421  17621.677854  19362.591845 999999.999999
P  2  18822.729530  17320.080785  -7193.231914 999999.999999
P  3 -12165.977638  23527.908399    563.980421 999999.999999
P  4  24369.482002  -5956.080591   9183.172089 999999.999999
P  5 -11582.672878 -23504.931456  -4863.024074 999999.999999
P  6 -11836.980190 -10687.522005  21390.845321 999999.999999
P  7  18225.906590 -11304.258288 -15164.540743 999999.999999
P  8  26653.534256   -286.800838  -1123.394836 999999.999999
P  9  -8744.986953 -14659.433736 -20738.148970 999999.999999
P 10   2434.627630 -19443.735641  17812.542564 999999.999999
P 11   9255.328450  14689.202728 -20074.278750 999999.999999
P 13  13247.329743   6986.336143  21928.566320 999999.999999
P 14 -18456.906228  11597.292258 -15194.175035 999999.999999
P 15 -26418.808038  -2596.703462   1528.885707 999999.999999
P 17 -24799.337361  -7421.573214   7339.809552 999999.999999
P 18 -18166.830735 -13496.964580 -14006.570706 999999.999999
P 20  13228.618839  22997.488520   -613.774758 999999.999999
P 21 -16572.295221  -1140.518372 -20467.479931 999999.999999
P 22  -7695.012021  15063.601883  20022.363404 999999.999999
P 23 -12934.582910 -23250.920490   -960.620872 999999.999999
P 25 -21257.803591  10560.407601  12048.993522 999999.999999
P 26   4314.694574 -23351.620864 -11374.975084 999999.999999
P 27  24240.955988   6034.367494  10167.054318 999999.999999
P 28  17834.469863   3505.628380 -19329.434025 999999.999999
P 29 -16891.137034  17909.368785  -9490.036730 999999.999999
P 30 -17615.591879 -18601.475931   6941.446951 999999.999999
P 31  -3055.342899  23771.452129 -11348.668756 999999.999999
*  2002  1  1  3 15  0.00000000
P  1   4700.939407  18225.178456  18891.865728 999999.999999
P  2  18907.467091  17606.799013  -6315.908276 999999.999999
P  3 -12249.057687  23441.782764   1500.217638 999999.999999
P  4  24696.894170  -5893.951169   8307.142986 999999.999999
P  5 -11385.282360 -23398.227545  -5766.218525 999999.999999
P  6 -11438.004701 -11384.679342  21240.763092 999999.999999
P  7  18017.677278 -10721.917891 -15814.050962 999999.999999
P  8  26669.101983   -205.777099   -176.133339 999999.999999
P  9  -7972.932618 -14716.480936 -20998.381454 999999.999999
P 10   2827.640635 -18874.008210  18365.070931 999999.999999
P 11   8484.135490  14787.467659 -20340.884963 999999.999999
P 13  12846.822131   7718.640120  21923.906716 999999.999999
P 14 -18222.589699  11050.399026 -15865.381230 999999.999999
P 15 -26330.332313  -2658.544274   2487.312773 999999.999999
P 17 -24506.506320  -7442.016738   8231.596148 999999.999999
P 18 -18358.486760 -13981.668676 -13264.183743 999999.999999
P 20  13136.472955  23007.356428  -1567.365944 999999.999999
P 21 -16962.949419  -1832.237301 -20119.298618 999999.999999
P 22  -8188.874720  14435.526110  20298.762695 999999.999999
P 23 -12898.662509 -23311.532270      2.700178 999999.999999
P 25 -21698.176360  10510.089574  11258.799905 999999.999999
P 26   4585.236090 -23678.940766 -10534.935616 999999.999999
P 27  23862.205237   6132.391410  10978.082818 999999.999999
P 28  18181.775940   4152.361244 -18881.657223 999999.999999
P 29 -16779.258396  17527.870355 -10344.281039 999999.999999
P 30 -17672.118656 -18868.564050   6046.673994 999999.999999
P 31  -3322.316441  24095.297991 -10532.597022 999999.999999
EOF
